[
    {
        "Altitude(m)": 702930.2648429337,
        "Argument of Periapsis(deg)": 0.005695060593313534,
        "Eccentricity": 0.0,
        "Inclination(deg)": 45.0,
        "Latitude(deg)": 18.744429766454434,
        "Longitude(deg)": 34.902497515219025,
        "Mean Anomaly(deg)": -206.96069167625956,
        "RAAN(deg)": 334.9946240292709,
        "Satellite Name": "Constellation 1 1483",
        "Satellite Number": 1483,
        "Semi-Major Axis(m)": 7083131.272910544,
        "Time(s)": 95
    },
    {
        "Altitude(m)": 702927.4283457245,
        "Argument of Periapsis(deg)": 0.00575500859955894,
        "Eccentricity": 0.0,
        "Inclination(deg)": 45.0,
        "Latitude(deg)": 18.70376887673222,
        "Longitude(deg)": 34.94615517096321,
        "Mean Anomaly(deg)": -206.8999905360097,
        "RAAN(deg)": 334.99456744010536,
        "Satellite Name": "Constellation 1 1483",
        "Satellite Number": 1483,
        "Semi-Major Axis(m)": 7083131.272910544,
        "Time(s)": 96
    },
    {
        "Altitude(m)": 702924.6067435329,
        "Argument of Periapsis(deg)": 0.005814956605804345,
        "Eccentricity": 0.0,
        "Inclination(deg)": 45.0,
        "Latitude(deg)": 18.663095671901676,
        "Longitude(deg)": 34.98979017321165,
        "Mean Anomaly(deg)": -206.83928939575983,
        "RAAN(deg)": 334.9945108509398,
        "Satellite Name": "Constellation 1 1483",
        "Satellite Number": 1483,
        "Semi-Major Axis(m)": 7083131.272910544,
        "Time(s)": 97
    },
    {
        "Altitude(m)": 702921.800066119,
        "Argument of Periapsis(deg)": 0.00587490461204975,
        "Eccentricity": 0.0,
        "Inclination(deg)": 45.0,
        "Latitude(deg)": 18.62241018640854,
        "Longitude(deg)": 35.03340241109638,
        "Mean Anomaly(deg)": -206.7785882555099,
        "RAAN(deg)": 334.99445426177425,
        "Satellite Name": "Constellation 1 1483",
        "Satellite Number": 1483,
        "Semi-Major Axis(m)": 7083131.272910544,
        "Time(s)": 98
    },
    {
        "Altitude(m)": 702919.0083431789,
        "Argument of Periapsis(deg)": 0.005934852618295156,
        "Eccentricity": 0.0,
        "Inclination(deg)": 45.0,
        "Latitude(deg)": 18.5817124546541,
        "Longitude(deg)": 35.0769919418163,
        "Mean Anomaly(deg)": -206.71788711526003,
        "RAAN(deg)": 334.9943976726086,
        "Satellite Name": "Constellation 1 1483",
        "Satellite Number": 1483,
        "Semi-Major Axis(m)": 7083131.272910544,
        "Time(s)": 99
    },
    {
        "Altitude(m)": 702916.2316043432,
        "Argument of Periapsis(deg)": 0.005994800624540561,
        "Eccentricity": 0.0,
        "Inclination(deg)": 45.0,
        "Latitude(deg)": 18.541002510994783,
        "Longitude(deg)": 35.12055882254051,
        "Mean Anomaly(deg)": -206.65718597501012,
        "RAAN(deg)": 334.99434108344303,
        "Satellite Name": "Constellation 1 1483",
        "Satellite Number": 1483,
        "Semi-Major Axis(m)": 7083131.272910544,
        "Time(s)": 100
    },
    {
        "Altitude(m)": 702913.4698792101,
        "Argument of Periapsis(deg)": 0.006054748630785968,
        "Eccentricity": 0.0,
        "Inclination(deg)": 45.0,
        "Latitude(deg)": 18.500280389742297,
        "Longitude(deg)": 35.16410311040777,
        "Mean Anomaly(deg)": -206.5964848347602,
        "RAAN(deg)": 334.9942844942775,
        "Satellite Name": "Constellation 1 1483",
        "Satellite Number": 1483,
        "Semi-Major Axis(m)": 7083131.272910544,
        "Time(s)": 101
    },
    {
        "Altitude(m)": 702910.7231972835,
        "Argument of Periapsis(deg)": 0.006114696637031373,
        "Eccentricity": 0.0,
        "Inclination(deg)": 45.0,
        "Latitude(deg)": 18.4595461251641,
        "Longitude(deg)": 35.20762486252639,
        "Mean Anomaly(deg)": -206.53578369451034,
        "RAAN(deg)": 334.9942279051119,
        "Satellite Name": "Constellation 1 1483",
        "Satellite Number": 1483,
        "Semi-Major Axis(m)": 7083131.272910544,
        "Time(s)": 102
    },
    {
        "Altitude(m)": 702907.9915880328,
        "Argument of Periapsis(deg)": 0.006174644643276778,
        "Eccentricity": 0.0,
        "Inclination(deg)": 45.0,
        "Latitude(deg)": 18.41879975148294,
        "Longitude(deg)": 35.251124135974806,
        "Mean Anomaly(deg)": -206.4750825542604,
        "RAAN(deg)": 334.9941713159464,
        "Satellite Name": "Constellation 1 1483",
        "Satellite Number": 1483,
        "Semi-Major Axis(m)": 7083131.272910544,
        "Time(s)": 103
    },
    {
        "Altitude(m)": 702905.2750808686,
        "Argument of Periapsis(deg)": 0.006234592649522184,
        "Eccentricity": 0.0,
        "Inclination(deg)": 45.0,
        "Latitude(deg)": 18.37804130287725,
        "Longitude(deg)": 35.29460081970361,
        "Mean Anomaly(deg)": -206.41438141401048,
        "RAAN(deg)": 334.99411472678077,
        "Satellite Name": "Constellation 1 1483",
        "Satellite Number": 1483,
        "Semi-Major Axis(m)": 7083131.272910544,
        "Time(s)": 104
    },
    {
        "Altitude(m)": 702902.5737051283,
        "Argument of Periapsis(deg)": 0.00629454065576759,
        "Eccentricity": 0.0,
        "Inclination(deg)": 45.0,
        "Latitude(deg)": 18.33727081348198,
        "Longitude(deg)": 35.3380553069248,
        "Mean Anomaly(deg)": -206.35368027376055,
        "RAAN(deg)": 334.9940581376152,
        "Satellite Name": "Constellation 1 1483",
        "Satellite Number": 1483,
        "Semi-Major Axis(m)": 7083131.272910544,
        "Time(s)": 105
    },
    {
        "Altitude(m)": 702899.8874900974,
        "Argument of Periapsis(deg)": 0.006354488662012995,
        "Eccentricity": 0.0,
        "Inclination(deg)": 45.0,
        "Latitude(deg)": 18.29648831738729,
        "Longitude(deg)": 35.38148748652829,
        "Mean Anomaly(deg)": -206.2929791335107,
        "RAAN(deg)": 334.99400154844966,
        "Satellite Name": "Constellation 1 1483",
        "Satellite Number": 1483,
        "Semi-Major Axis(m)": 7083131.272910544,
        "Time(s)": 106
    },
    {
        "Altitude(m)": 702897.2164650061,
        "Argument of Periapsis(deg)": 0.006414436668258401,
        "Eccentricity": 0.0,
        "Inclination(deg)": 45.0,
        "Latitude(deg)": 18.255693848639602,
        "Longitude(deg)": 35.42489741547099,
        "Mean Anomaly(deg)": -206.23227799326085,
        "RAAN(deg)": 334.9939449592841,
        "Satellite Name": "Constellation 1 1483",
        "Satellite Number": 1483,
        "Semi-Major Axis(m)": 7083131.272910544,
        "Time(s)": 107
    },
    {
        "Altitude(m)": 702894.5606590166,
        "Argument of Periapsis(deg)": 0.0064743846745038075,
        "Eccentricity": 0.0,
        "Inclination(deg)": 45.0,
        "Latitude(deg)": 18.214887441241494,
        "Longitude(deg)": 35.468285150679215,
        "Mean Anomaly(deg)": -206.17157685301092,
        "RAAN(deg)": 334.99388837011855,
        "Satellite Name": "Constellation 1 1483",
        "Satellite Number": 1483,
        "Semi-Major Axis(m)": 7083131.272910544,
        "Time(s)": 108
    },
    {
        "Altitude(m)": 702891.9201012374,
        "Argument of Periapsis(deg)": 0.0065343326807492125,
        "Eccentricity": 0.0,
        "Inclination(deg)": 45.0,
        "Latitude(deg)": 18.174069129151988,
        "Longitude(deg)": 35.511650749048776,
        "Mean Anomaly(deg)": -206.11087571276104,
        "RAAN(deg)": 334.993831780953,
        "Satellite Name": "Constellation 1 1483",
        "Satellite Number": 1483,
        "Semi-Major Axis(m)": 7083131.272910544,
        "Time(s)": 109
    },
    {
        "Altitude(m)": 702889.2948207192,
        "Argument of Periapsis(deg)": 0.0065942806869946176,
        "Eccentricity": 0.0,
        "Inclination(deg)": 45.0,
        "Latitude(deg)": 18.133238946286305,
        "Longitude(deg)": 35.554994267445,
        "Mean Anomaly(deg)": -206.05017457251117,
        "RAAN(deg)": 334.99377519178734,
        "Satellite Name": "Constellation 1 1483",
        "Satellite Number": 1483,
        "Semi-Major Axis(m)": 7083131.272910544,
        "Time(s)": 110
    },
    {
        "Altitude(m)": 702886.6848464385,
        "Argument of Periapsis(deg)": 0.006654228693240024,
        "Eccentricity": 0.0,
        "Inclination(deg)": 45.0,
        "Latitude(deg)": 18.092396926516056,
        "Longitude(deg)": 35.59831559460577,
        "Mean Anomaly(deg)": -205.98947343226118,
        "RAAN(deg)": 334.9937186026218,
        "Satellite Name": "Constellation 1 1483",
        "Satellite Number": 1483,
        "Semi-Major Axis(m)": 7083131.272910544,
        "Time(s)": 111
    },
    {
        "Altitude(m)": 702884.0902073293,
        "Argument of Periapsis(deg)": 0.006714176699485429,
        "Eccentricity": 0.0,
        "Inclination(deg)": 45.0,
        "Latitude(deg)": 18.051543103670372,
        "Longitude(deg)": 35.64161512352917,
        "Mean Anomaly(deg)": -205.92877229201133,
        "RAAN(deg)": 334.99366201345623,
        "Satellite Name": "Constellation 1 1483",
        "Satellite Number": 1483,
        "Semi-Major Axis(m)": 7083131.272910544,
        "Time(s)": 112
    },
    {
        "Altitude(m)": 702881.5109322547,
        "Argument of Periapsis(deg)": 0.006774124705730835,
        "Eccentricity": 0.0,
        "Inclination(deg)": 45.0,
        "Latitude(deg)": 18.01067751153406,
        "Longitude(deg)": 35.68489274289205,
        "Mean Anomaly(deg)": -205.8680711517614,
        "RAAN(deg)": 334.9936054242907,
        "Satellite Name": "Constellation 1 1483",
        "Satellite Number": 1483,
        "Semi-Major Axis(m)": 7083131.272910544,
        "Time(s)": 113
    }
]